{"type": "FeatureCollection", "features": [ {"type": "Feature", "properties": {"norad_id": 30569, "name": "FENGYUN 1C DEB", "group": "fengyun-1c-debris", "lat": 41.44528321375935, "lon": -47.50020855279538, "alt_km": 642.8568863706969, "timestamp": "2025-12-11T18:59:46.350698+00:00", "meta": {"OBJECT_NAME": "FENGYUN 1C DEB", "OBJECT_ID": "1999-025ALK", "EPOCH": "2025-12-11T06:57:56.833632", "MEAN_MOTION": 14.73573674, "ECCENTRICITY": 0.0006488, "INCLINATION": 98.7372, "RA_OF_ASC_NODE": 124.1555, "ARG_OF_PERICENTER": 96.378, "MEAN_ANOMALY": 263.8165, "EPHEMERIS_TYPE": 0, "CLASSIFICATION_TYPE": "U", "NORAD_CAT_ID": 30569, "ELEMENT_SET_NO": 999, "REV_AT_EPOCH": 98185, "BSTAR": 0.0075961632, "MEAN_MOTION_DOT": 0.00049754, "MEAN_MOTION_DDOT": 0}, "tle": {"line1": "1 30569U 99025ALK 25345.29024113  .00049754  00000+0  75962-2 0  9998", "line2": "2 30569  98.7372 124.1555 0006488  96.3780 263.8165 14.73573674981852"}}, "geometry": {"type": "Point", "coordinates": [-47.50020855279538, 41.44528321375935]}}, {"type": "Feature", "properties": {"norad_id": 30570, "name": "FENGYUN 1C DEB", "group": "fengyun-1c-debris", "lat": -35.13788002893181, "lon": -167.8625146222542, "alt_km": 825.6084570835274, "timestamp": "2025-12-11T18:59:46.350708+00:00", "meta": {"OBJECT_NAME": "FENGYUN 1C DEB", "OBJECT_ID": "1999-025ALL", "EPOCH": "2025-12-10T13:50:05.083872", "MEAN_MOTION": 14.14262551, "ECCENTRICITY": 0.0035174, "INCLINATION": 98.7154, "RA_OF_ASC_NODE": 17.1499, "ARG_OF_PERICENTER": 218.1754, "MEAN_ANOMALY": 294.4935, "EPHEMERIS_TYPE": 0, "CLASSIFICATION_TYPE": "U", "NORAD_CAT_ID": 30570, "ELEMENT_SET_NO": 999, "REV_AT_EPOCH": 96967, "BSTAR": 0.00068041, "MEAN_MOTION_DOT": 1.264e-05, "MEAN_MOTION_DDOT": 0}, "tle": {"line1": "1 30570U 99025ALL 25344.57644773  .00001264  00000+0  68041-3 0  9995", "line2": "2 30570  98.7154  17.1499 0035174 218.1754 294.4935 14.14262551969674"}}, "geometry": {"type": "Point", "coordinates": [-167.8625146222542, -35.13788002893181]}}, {"type": "Feature", "properties": {"norad_id": 30571, "name": "FENGYUN 1C DEB", "group": "fengyun-1c-debris", "lat": 15.80690314386678, "lon": -165.4742081890046, "alt_km": 853.1875521333086, "timestamp": "2025-12-11T18:59:46.350719+00:00", "meta": {"OBJECT_NAME": "FENGYUN 1C DEB", "OBJECT_ID": "1999-025ALM", "EPOCH": "2025-12-11T01:27:25.599744", "MEAN_MOTION": 14.10692882, "ECCENTRICITY": 0.00207415, "INCLINATION": 98.7314, "RA_OF_ASC_NODE": 11.3223, "ARG_OF_PERICENTER": 238.8353, "MEAN_ANOMALY": 176.0133, "EPHEMERIS_TYPE": 0, "CLASSIFICATION_TYPE": "U", "NORAD_CAT_ID": 30571, "ELEMENT_SET_NO": 999, "REV_AT_EPOCH": 96863, "BSTAR": 0.00034420324, "MEAN_MOTION_DOT": 5.73e-06, "MEAN_MOTION_DDOT": 0}, "tle": {"line1": "1 30571U 99025ALM 25345.06071296  .00000573  00000+0  34420-3 0  9991", "line2": "2 30571  98.7314  11.3223 0020741 238.8353 176.0133 14.10692882968632"}}, "geometry": {"type": "Point", "coordinates": [-165.4742081890046, 15.80690314386678]}}, {"type": "Feature", "properties": {"norad_id": 30572, "name": "FENGYUN 1C DEB", "group": "fengyun-1c-debris", "lat": 74.05120643064922, "lon": -17.264977477976334, "alt_km": 867.7064879095542, "timestamp": "2025-12-11T18:59:46.350729+00:00", "meta": {"OBJECT_NAME": "FENGYUN 1C DEB", "OBJECT_ID": "1999-025ALN", "EPOCH": "2025-12-11T01:50:59.770752", "MEAN_MOTION": 14.08919013, "ECCENTRICITY": 0.00211408, "INCLINATION": 98.7723, "RA_OF_ASC_NODE": 14.7449, "ARG_OF_PERICENTER": 298.5304, "MEAN_ANOMALY": 116.3292, "EPHEMERIS_TYPE": 0, "CLASSIFICATION_TYPE": "U", "NORAD_CAT_ID": 30572, "ELEMENT_SET_NO": 999, "REV_AT_EPOCH": 96738, "BSTAR": 0.00038818862, "MEAN_MOTION_DOT": 6.29e-06, "MEAN_MOTION_DDOT": 0}, "tle": {"line1": "1 30572U 99025ALN 25345.07708068  .00000629  00000+0  38819-3 0  9995", "line2": "2 30572  98.7723  14.7449 0021140 298.5304 116.3292 14.08919013967386"}}, "geometry": {"type": "Point", "coordinates": [-17.264977477976334, 74.05120643064922]}}, {"type": "Feature", "properties": {"norad_id": 30573, "name": "FENGYUN 1C DEB", "group": "fengyun-1c-debris", "lat": -10.03386358390081, "lon": 25.145097002468788, "alt_km": 831.7214857473036, "timestamp": "2025-12-11T18:59:46.350740+00:00", "meta": {"OBJECT_NAME": "FENGYUN 1C DEB", "OBJECT_ID": "1999-025ALP", "EPOCH": "2025-12-11T02:19:19.650144", "MEAN_MOTION": 14.13819429, "ECCENTRICITY": 0.00883591, "INCLINATION": 99.2268, "RA_OF_ASC_NODE": 22.7803, "ARG_OF_PERICENTER": 278.4338, "MEAN_ANOMALY": 136.368, "EPHEMERIS_TYPE": 0, "CLASSIFICATION_TYPE": "U", "NORAD_CAT_ID": 30573, "ELEMENT_SET_NO": 999, "REV_AT_EPOCH": 96174, "BSTAR": 0.0025748429, "MEAN_MOTION_DOT": 5.016e-05, "MEAN_MOTION_DDOT": 0}, "tle": {"line1": "1 30573U 99025ALP 25345.09675521  .00005016  00000+0  25748-2 0  9996", "line2": "2 30573  99.2268  22.7803 0088359 278.4338 136.3680 14.13819429961742"}}, "geometry": {"type": "Point", "coordinates": [25.145097002468788, -10.03386358390081]}}, {"type": "Feature", "properties": {"norad_id": 30574, "name": "FENGYUN 1C DEB", "group": "fengyun-1c-debris", "lat": 46.97698148523614, "lon": 139.2859628677604, "alt_km": 880.3012329944031, "timestamp": "2025-12-11T18:59:46.350750+00:00", "meta": {"OBJECT_NAME": "FENGYUN 1C DEB", "OBJECT_ID": "1999-025ALQ", "EPOCH": "2025-12-09T09:14:54.974400", "MEAN_MOTION": 13.77498297, "ECCENTRICITY": 0.02190443, "INCLINATION": 99.3025, "RA_OF_ASC_NODE": 147.0438, "ARG_OF_PERICENTER": 356.3652, "MEAN_ANOMALY": 3.5899, "EPHEMERIS_TYPE": 0, "CLASSIFICATION_TYPE": "U", "NORAD_CAT_ID": 30574, "ELEMENT_SET_NO": 999, "REV_AT_EPOCH": 93722, "BSTAR": 0.0030506009, "MEAN_MOTION_DOT": 3.583e-05, "MEAN_MOTION_DDOT": 0}, "tle": {"line1": "1 30574U 99025ALQ 25343.38535850  .00003583  00000+0  30506-2 0  9992", "line2": "2 30574  99.3025 147.0438 0219044 356.3652   3.5899 13.77498297937220"}}, "geometry": {"type": "Point", "coordinates": [139.2859628677604, 46.97698148523614]}}, {"type": "Feature", "properties": {"norad_id": 30575, "name": "FENGYUN 1C DEB", "group": "fengyun-1c-debris", "lat": -29.680067686543914, "lon": 81.92448126061161, "alt_km": 764.4934807371037, "timestamp": "2025-12-11T18:59:46.350760+00:00", "meta": {"OBJECT_NAME": "FENGYUN 1C DEB", "OBJECT_ID": "1999-025ALR", "EPOCH": "2025-12-11T06:05:46.605696", "MEAN_MOTION": 14.40048603, "ECCENTRICITY": 0.00540535, "INCLINATION": 99.1695, "RA_OF_ASC_NODE": 76.0674, "ARG_OF_PERICENTER": 240.8238, "MEAN_ANOMALY": 183.6531, "EPHEMERIS_TYPE": 0, "CLASSIFICATION_TYPE": "U", "NORAD_CAT_ID": 30575, "ELEMENT_SET_NO": 999, "REV_AT_EPOCH": 98196, "BSTAR": 0.0018854737, "MEAN_MOTION_DOT": 6.002e-05, "MEAN_MOTION_DDOT": 0}, "tle": {"line1": "1 30575U 99025ALR 25345.25401164  .00006002  00000+0  18855-2 0  9993", "line2": "2 30575  99.1695  76.0674 0054053 240.8238 183.6531 14.40048603981965"}}, "geometry": {"type": "Point", "coordinates": [81.92448126061161, -29.680067686543914]}}, {"type": "Feature", "properties": {"norad_id": 30577, "name": "FENGYUN 1C DEB", "group": "fengyun-1c-debris", "lat": 59.169711899859884, "lon": -145.26476956506687, "alt_km": 869.7314721039993, "timestamp": "2025-12-11T18:59:46.350785+00:00", "meta": {"OBJECT_NAME": "FENGYUN 1C DEB", "OBJECT_ID": "1999-025ALT", "EPOCH": "2025-12-10T21:09:06.011712", "MEAN_MOTION": 14.11138739, "ECCENTRICITY": 0.0028608, "INCLINATION": 98.7707, "RA_OF_ASC_NODE": 18.8554, "ARG_OF_PERICENTER": 287.6037, "MEAN_ANOMALY": 250.824, "EPHEMERIS_TYPE": 0, "CLASSIFICATION_TYPE": "U", "NORAD_CAT_ID": 30577, "ELEMENT_SET_NO": 999, "REV_AT_EPOCH": 96758, "BSTAR": 0.00066078, "MEAN_MOTION_DOT": 1.151e-05, "MEAN_MOTION_DDOT": 0}, "tle": {"line1": "1 30577U 99025ALT 25344.88131958  .00001151  00000+0  66078-3 0  9995", "line2": "2 30577  98.7707  18.8554 0028608 287.6037 250.8240 14.11138739967584"}}, "geometry": {"type": "Point", "coordinates": [-145.26476956506687, 59.169711899859884]}}, {"type": "Feature", "properties": {"norad_id": 30579, "name": "FENGYUN 1C DEB", "group": "fengyun-1c-debris", "lat": -15.037677392883891, "lon": 12.880836793409637, "alt_km": 900.370137887242, "timestamp": "2025-12-11T18:59:46.350797+00:00", "meta": {"OBJECT_NAME": "FENGYUN 1C DEB", "OBJECT_ID": "1999-025ALV", "EPOCH": "2025-12-10T20:00:01.238688", "MEAN_MOTION": 14.05246214, "ECCENTRICITY": 0.00536974, "INCLINATION": 98.8069, "RA_OF_ASC_NODE": 9.5634, "ARG_OF_PERICENTER": 108.8377, "MEAN_ANOMALY": 72.0384, "EPHEMERIS_TYPE": 0, "CLASSIFICATION_TYPE": "U", "NORAD_CAT_ID": 30579, "ELEMENT_SET_NO": 999, "REV_AT_EPOCH": 96430, "BSTAR": 0.0005649103, "MEAN_MOTION_DOT": 8.83e-06, "MEAN_MOTION_DDOT": 0}, "tle": {"line1": "1 30579U 99025ALV 25344.83334767  .00000883  00000+0  56491-3 0  9994", "line2": "2 30579  98.8069   9.5634 0053697 108.8377  72.0384 14.05246214964302"}}, "geometry": {"type": "Point", "coordinates": [12.880836793409637, -15.037677392883891]}}, {"type": "Feature", "properties": {"norad_id": 30594, "name": "FENGYUN 1C DEB", "group": "fengyun-1c-debris", "lat": -38.15741911768183, "lon": 14.668192703946387, "alt_km": 863.3618314888072, "timestamp": "2025-12-11T18:59:46.350807+00:00", "meta": {"OBJECT_NAME": "FENGYUN 1C DEB", "OBJECT_ID": "1999-025ALZ", "EPOCH": "2025-12-10T13:08:55.884192", "MEAN_MOTION": 14.17337284, "ECCENTRICITY": 0.0193492, "INCLINATION": 99.1513, "RA_OF_ASC_NODE": 200.6638, "ARG_OF_PERICENTER": 322.5898, "MEAN_ANOMALY": 36.1934, "EPHEMERIS_TYPE": 0, "CLASSIFICATION_TYPE": "U", "NORAD_CAT_ID": 30594, "ELEMENT_SET_NO": 999, "REV_AT_EPOCH": 97548, "BSTAR": 0.00028585, "MEAN_MOTION_DOT": 6.45e-06, "MEAN_MOTION_DDOT": 0}, "tle": {"line1": "1 30594U 99025ALZ 25344.54786903  .00000645  00000+0  28585-3 0  9991", "line2": "2 30594  99.1513 200.6638 0193492 322.5898  36.1934 14.17337284975480"}}, "geometry": {"type": "Point", "coordinates": [14.668192703946387, -38.15741911768183]}}]}